PROGRESS-MS 32          
1 65586U 25204A   25312.22692672  .00014841  00000+0  27272-3 0  9992
2 65586  51.6343 313.3275 0004298  41.9624 318.1693 15.49446508   273
CYGNUS NG-23            
1 65616U 25208A   25312.22692672  .00014841  00000+0  27272-3 0  9990
2 65616  51.6343 313.3275 0004298  41.9624 318.1693 15.49446508   222
DRAGONFLY               
1 65729U 98067XH  25312.21918802  .00126601  00000+0  14522-2 0  9994
2 65729  51.6309 311.0278 0004178  94.3168 265.8303 15.61151461  7755
1998-067XJ              
1 65730U 98067XJ  25312.27650113  .00400779  00000+0  28522-2 0  9996
2 65730  51.6273 309.1507 0011191  76.3231 283.9012 15.72034770  7780
1998-067XK              
1 65731U 98067XK  25312.25302128  .00084416  00000+0  10694-2 0  9992
2 65731  51.6333 311.2561 0005379  69.8269 290.3302 15.58730144  7754
RSP-03                  
1 65732U 98067XL  25312.23650742  .00104024  00000+0  12558-2 0  9998
2 65732  51.6306 311.1442 0006090  72.0138 288.1519 15.59903348  7769
GHS-01                  
1 65733U 98067XM  25312.71941551  .00160632  00000+0  17618-2 0  9992
2 65733  51.6318 308.3701 0004767  93.0954 267.0585 15.62176689  7849
YOTSUBA-KULOVER         
1 65941U 98067XN  25312.30502504  .00065941  00000+0  99592-3 0  9998
2 65941  51.6319 312.3485 0002609  25.0713 335.0404 15.54104125  4497
BOTAN                   
1 65942U 98067XP  25312.23052238  .00095447  00000+0  13745-2 0  9994
2 65942  51.6318 312.6015 0004708  39.0396 321.0934 15.55235340  4480
E-KAGAKU-1              
1 65943U 98067XQ  25312.30458320  .00067002  00000+0  10114-2 0  9998
2 65943  51.6329 312.3461 0004446  27.3880 332.7345 15.54104514  4495
HRC MONOBLOCK CAMERA    
1 66052U 98067XR  25312.73129075  .00043362  00000+0  73311-3 0  9991
2 66052  51.6324 310.6934 0004704  43.1755 316.9602 15.51142282  3559
HTV-X1                  
1 66174U 25241A   25312.22692672  .00014841  00000+0  27272-3 0  9997
2 66174  51.6343 313.3275 0004298  41.9624 318.1693 15.49446508  1458
