CCSDS_OMM_VERS = 2.0
CREATION_DATE  = 
ORIGINATOR     = 

OBJECT_NAME    = PROGRESS-MS 32
OBJECT_ID      = 2025-204A
CENTER_NAME    = EARTH
REF_FRAME      = TEME
TIME_SYSTEM    = UTC
MEAN_ELEMENT_THEORY = SGP/SGP4

EPOCH          = 2025-11-08T05:26:46.468608
MEAN_MOTION    = 15.49446508
ECCENTRICITY   = .00042981
INCLINATION    = 51.6343
RA_OF_ASC_NODE = 313.3275
ARG_OF_PERICENTER = 41.9624
MEAN_ANOMALY   = 318.1693

EPHEMERIS_TYPE = 0
CLASSIFICATION_TYPE = U
NORAD_CAT_ID   = 65586
ELEMENT_SET_NO = 999
REV_AT_EPOCH   = 27
BSTAR          = .27271765E-3
MEAN_MOTION_DOT = .14841E-3
MEAN_MOTION_DDOT = 0

CCSDS_OMM_VERS = 2.0
CREATION_DATE  = 
ORIGINATOR     = 

OBJECT_NAME    = CYGNUS NG-23
OBJECT_ID      = 2025-208A
CENTER_NAME    = EARTH
REF_FRAME      = TEME
TIME_SYSTEM    = UTC
MEAN_ELEMENT_THEORY = SGP/SGP4

EPOCH          = 2025-11-08T05:26:46.468608
MEAN_MOTION    = 15.49446508
ECCENTRICITY   = .00042981
INCLINATION    = 51.6343
RA_OF_ASC_NODE = 313.3275
ARG_OF_PERICENTER = 41.9624
MEAN_ANOMALY   = 318.1693

EPHEMERIS_TYPE = 0
CLASSIFICATION_TYPE = U
NORAD_CAT_ID   = 65616
ELEMENT_SET_NO = 999
REV_AT_EPOCH   = 22
BSTAR          = .27271765E-3
MEAN_MOTION_DOT = .14841E-3
MEAN_MOTION_DDOT = 0

CCSDS_OMM_VERS = 2.0
CREATION_DATE  = 
ORIGINATOR     = 

OBJECT_NAME    = DRAGONFLY
OBJECT_ID      = 1998-067XH
CENTER_NAME    = EARTH
REF_FRAME      = TEME
TIME_SYSTEM    = UTC
MEAN_ELEMENT_THEORY = SGP/SGP4

EPOCH          = 2025-11-08T05:15:37.844928
MEAN_MOTION    = 15.61151461
ECCENTRICITY   = .00041787
INCLINATION    = 51.6309
RA_OF_ASC_NODE = 311.0278
ARG_OF_PERICENTER = 94.3168
MEAN_ANOMALY   = 265.8303

EPHEMERIS_TYPE = 0
CLASSIFICATION_TYPE = U
NORAD_CAT_ID   = 65729
ELEMENT_SET_NO = 999
REV_AT_EPOCH   = 775
BSTAR          = .14521939E-2
MEAN_MOTION_DOT = .126601E-2
MEAN_MOTION_DDOT = 0

CCSDS_OMM_VERS = 2.0
CREATION_DATE  = 
ORIGINATOR     = 

OBJECT_NAME    = 1998-067XJ
OBJECT_ID      = 1998-067XJ
CENTER_NAME    = EARTH
REF_FRAME      = TEME
TIME_SYSTEM    = UTC
MEAN_ELEMENT_THEORY = SGP/SGP4

EPOCH          = 2025-11-08T06:38:09.697632
MEAN_MOTION    = 15.72034770
ECCENTRICITY   = .00111915
INCLINATION    = 51.6273
RA_OF_ASC_NODE = 309.1507
ARG_OF_PERICENTER = 76.3231
MEAN_ANOMALY   = 283.9012

EPHEMERIS_TYPE = 0
CLASSIFICATION_TYPE = U
NORAD_CAT_ID   = 65730
ELEMENT_SET_NO = 999
REV_AT_EPOCH   = 778
BSTAR          = .28522118E-2
MEAN_MOTION_DOT = .400779E-2
MEAN_MOTION_DDOT = 0

CCSDS_OMM_VERS = 2.0
CREATION_DATE  = 
ORIGINATOR     = 

OBJECT_NAME    = 1998-067XK
OBJECT_ID      = 1998-067XK
CENTER_NAME    = EARTH
REF_FRAME      = TEME
TIME_SYSTEM    = UTC
MEAN_ELEMENT_THEORY = SGP/SGP4

EPOCH          = 2025-11-08T06:04:21.038592
MEAN_MOTION    = 15.58730144
ECCENTRICITY   = .00053797
INCLINATION    = 51.6333
RA_OF_ASC_NODE = 311.2561
ARG_OF_PERICENTER = 69.8269
MEAN_ANOMALY   = 290.3302

EPHEMERIS_TYPE = 0
CLASSIFICATION_TYPE = U
NORAD_CAT_ID   = 65731
ELEMENT_SET_NO = 999
REV_AT_EPOCH   = 775
BSTAR          = .10694285E-2
MEAN_MOTION_DOT = .84416E-3
MEAN_MOTION_DDOT = 0

CCSDS_OMM_VERS = 2.0
CREATION_DATE  = 
ORIGINATOR     = 

OBJECT_NAME    = RSP-03
OBJECT_ID      = 1998-067XL
CENTER_NAME    = EARTH
REF_FRAME      = TEME
TIME_SYSTEM    = UTC
MEAN_ELEMENT_THEORY = SGP/SGP4

EPOCH          = 2025-11-08T05:40:34.241088
MEAN_MOTION    = 15.59903348
ECCENTRICITY   = .00060904
INCLINATION    = 51.6306
RA_OF_ASC_NODE = 311.1442
ARG_OF_PERICENTER = 72.0138
MEAN_ANOMALY   = 288.1519

EPHEMERIS_TYPE = 0
CLASSIFICATION_TYPE = U
NORAD_CAT_ID   = 65732
ELEMENT_SET_NO = 999
REV_AT_EPOCH   = 776
BSTAR          = .12557672E-2
MEAN_MOTION_DOT = .104024E-2
MEAN_MOTION_DDOT = 0

CCSDS_OMM_VERS = 2.0
CREATION_DATE  = 
ORIGINATOR     = 

OBJECT_NAME    = GHS-01
OBJECT_ID      = 1998-067XM
CENTER_NAME    = EARTH
REF_FRAME      = TEME
TIME_SYSTEM    = UTC
MEAN_ELEMENT_THEORY = SGP/SGP4

EPOCH          = 2025-11-08T17:15:57.500064
MEAN_MOTION    = 15.62176689
ECCENTRICITY   = .0004767
INCLINATION    = 51.6318
RA_OF_ASC_NODE = 308.3701
ARG_OF_PERICENTER = 93.0954
MEAN_ANOMALY   = 267.0585

EPHEMERIS_TYPE = 0
CLASSIFICATION_TYPE = U
NORAD_CAT_ID   = 65733
ELEMENT_SET_NO = 999
REV_AT_EPOCH   = 784
BSTAR          = .17618E-2
MEAN_MOTION_DOT = .160632E-2
MEAN_MOTION_DDOT = 0

CCSDS_OMM_VERS = 2.0
CREATION_DATE  = 
ORIGINATOR     = 

OBJECT_NAME    = YOTSUBA-KULOVER
OBJECT_ID      = 1998-067XN
CENTER_NAME    = EARTH
REF_FRAME      = TEME
TIME_SYSTEM    = UTC
MEAN_ELEMENT_THEORY = SGP/SGP4

EPOCH          = 2025-11-08T07:19:14.163456
MEAN_MOTION    = 15.54104125
ECCENTRICITY   = .00026093
INCLINATION    = 51.6319
RA_OF_ASC_NODE = 312.3485
ARG_OF_PERICENTER = 25.0713
MEAN_ANOMALY   = 335.0404

EPHEMERIS_TYPE = 0
CLASSIFICATION_TYPE = U
NORAD_CAT_ID   = 65941
ELEMENT_SET_NO = 999
REV_AT_EPOCH   = 449
BSTAR          = .99591995E-3
MEAN_MOTION_DOT = .65941E-3
MEAN_MOTION_DDOT = 0

CCSDS_OMM_VERS = 2.0
CREATION_DATE  = 
ORIGINATOR     = 

OBJECT_NAME    = BOTAN
OBJECT_ID      = 1998-067XP
CENTER_NAME    = EARTH
REF_FRAME      = TEME
TIME_SYSTEM    = UTC
MEAN_ELEMENT_THEORY = SGP/SGP4

EPOCH          = 2025-11-08T05:31:57.133632
MEAN_MOTION    = 15.55235340
ECCENTRICITY   = .00047087
INCLINATION    = 51.6318
RA_OF_ASC_NODE = 312.6015
ARG_OF_PERICENTER = 39.0396
MEAN_ANOMALY   = 321.0934

EPHEMERIS_TYPE = 0
CLASSIFICATION_TYPE = U
NORAD_CAT_ID   = 65942
ELEMENT_SET_NO = 999
REV_AT_EPOCH   = 448
BSTAR          = .13745477E-2
MEAN_MOTION_DOT = .95447E-3
MEAN_MOTION_DDOT = 0

CCSDS_OMM_VERS = 2.0
CREATION_DATE  = 
ORIGINATOR     = 

OBJECT_NAME    = E-KAGAKU-1
OBJECT_ID      = 1998-067XQ
CENTER_NAME    = EARTH
REF_FRAME      = TEME
TIME_SYSTEM    = UTC
MEAN_ELEMENT_THEORY = SGP/SGP4

EPOCH          = 2025-11-08T07:18:35.988480
MEAN_MOTION    = 15.54104514
ECCENTRICITY   = .00044461
INCLINATION    = 51.6329
RA_OF_ASC_NODE = 312.3461
ARG_OF_PERICENTER = 27.3880
MEAN_ANOMALY   = 332.7345

EPHEMERIS_TYPE = 0
CLASSIFICATION_TYPE = U
NORAD_CAT_ID   = 65943
ELEMENT_SET_NO = 999
REV_AT_EPOCH   = 449
BSTAR          = .10114476E-2
MEAN_MOTION_DOT = .67002E-3
MEAN_MOTION_DDOT = 0

CCSDS_OMM_VERS = 2.0
CREATION_DATE  = 
ORIGINATOR     = 

OBJECT_NAME    = HRC MONOBLOCK CAMERA
OBJECT_ID      = 1998-067XR
CENTER_NAME    = EARTH
REF_FRAME      = TEME
TIME_SYSTEM    = UTC
MEAN_ELEMENT_THEORY = SGP/SGP4

EPOCH          = 2025-11-08T17:33:03.520800
MEAN_MOTION    = 15.51142282
ECCENTRICITY   = .0004704
INCLINATION    = 51.6324
RA_OF_ASC_NODE = 310.6934
ARG_OF_PERICENTER = 43.1755
MEAN_ANOMALY   = 316.9602

EPHEMERIS_TYPE = 0
CLASSIFICATION_TYPE = U
NORAD_CAT_ID   = 66052
ELEMENT_SET_NO = 999
REV_AT_EPOCH   = 355
BSTAR          = .73311E-3
MEAN_MOTION_DOT = .43362E-3
MEAN_MOTION_DDOT = 0

CCSDS_OMM_VERS = 2.0
CREATION_DATE  = 
ORIGINATOR     = 

OBJECT_NAME    = HTV-X1
OBJECT_ID      = 2025-241A
CENTER_NAME    = EARTH
REF_FRAME      = TEME
TIME_SYSTEM    = UTC
MEAN_ELEMENT_THEORY = SGP/SGP4

EPOCH          = 2025-11-08T05:26:46.468608
MEAN_MOTION    = 15.49446508
ECCENTRICITY   = .00042981
INCLINATION    = 51.6343
RA_OF_ASC_NODE = 313.3275
ARG_OF_PERICENTER = 41.9624
MEAN_ANOMALY   = 318.1693

EPHEMERIS_TYPE = 0
CLASSIFICATION_TYPE = U
NORAD_CAT_ID   = 66174
ELEMENT_SET_NO = 999
REV_AT_EPOCH   = 145
BSTAR          = .27271765E-3
MEAN_MOTION_DOT = .14841E-3
MEAN_MOTION_DDOT = 0

